CCSDS_OMM_VERS = 2.0
CREATION_DATE  = 
ORIGINATOR     = 

OBJECT_NAME    = SL-16 R/B
OBJECT_ID      = 1998-043G
CENTER_NAME    = EARTH
REF_FRAME      = TEME
TIME_SYSTEM    = UTC
MEAN_ELEMENT_THEORY = SGP/SGP4

EPOCH          = 2026-01-22T06:47:51.788256
MEAN_MOTION    = 14.26036879
ECCENTRICITY   = .00104078
INCLINATION    = 98.8183
RA_OF_ASC_NODE = 335.3401
ARG_OF_PERICENTER = 143.9470
MEAN_ANOMALY   = 216.2413

EPHEMERIS_TYPE = 0
CLASSIFICATION_TYPE = U
NORAD_CAT_ID   = 25400
ELEMENT_SET_NO = 999
REV_AT_EPOCH   = 43237
BSTAR          = .85688698E-4
MEAN_MOTION_DOT = .16E-5
MEAN_MOTION_DDOT = 0

CCSDS_OMM_VERS = 2.0
CREATION_DATE  = 
ORIGINATOR     = 

OBJECT_NAME    = SL-16 R/B
OBJECT_ID      = 1998-045B
CENTER_NAME    = EARTH
REF_FRAME      = TEME
TIME_SYSTEM    = UTC
MEAN_ELEMENT_THEORY = SGP/SGP4

EPOCH          = 2026-01-22T04:00:43.611552
MEAN_MOTION    = 14.16184912
ECCENTRICITY   = .00051964
INCLINATION    = 71.0112
RA_OF_ASC_NODE = 279.4105
ARG_OF_PERICENTER = 99.7364
MEAN_ANOMALY   = 260.4347

EPHEMERIS_TYPE = 0
CLASSIFICATION_TYPE = U
NORAD_CAT_ID   = 25407
ELEMENT_SET_NO = 999
REV_AT_EPOCH   = 42051
BSTAR          = .1981358E-3
MEAN_MOTION_DOT = .345E-5
MEAN_MOTION_DDOT = 0

CCSDS_OMM_VERS = 2.0
CREATION_DATE  = 
ORIGINATOR     = 

OBJECT_NAME    = ISS (ZARYA)
OBJECT_ID      = 1998-067A
CENTER_NAME    = EARTH
REF_FRAME      = TEME
TIME_SYSTEM    = UTC
MEAN_ELEMENT_THEORY = SGP/SGP4

EPOCH          = 2026-01-22T04:11:09.201120
MEAN_MOTION    = 15.49548134
ECCENTRICITY   = .00078093
INCLINATION    = 51.6328
RA_OF_ASC_NODE = 302.3013
ARG_OF_PERICENTER = 45.1395
MEAN_ANOMALY   = 315.0227

EPHEMERIS_TYPE = 0
CLASSIFICATION_TYPE = U
NORAD_CAT_ID   = 25544
ELEMENT_SET_NO = 999
REV_AT_EPOCH   = 54912
BSTAR          = .2956228E-3
MEAN_MOTION_DOT = .16198E-3
MEAN_MOTION_DDOT = 0

CCSDS_OMM_VERS = 2.0
CREATION_DATE  = 
ORIGINATOR     = 

OBJECT_NAME    = CZ-4B R/B
OBJECT_ID      = 1999-025C
CENTER_NAME    = EARTH
REF_FRAME      = TEME
TIME_SYSTEM    = UTC
MEAN_ELEMENT_THEORY = SGP/SGP4

EPOCH          = 2026-01-22T02:27:01.414944
MEAN_MOTION    = 14.18254660
ECCENTRICITY   = .00380813
INCLINATION    = 98.6712
RA_OF_ASC_NODE = 67.4683
ARG_OF_PERICENTER = 118.2798
MEAN_ANOMALY   = 296.5432

EPHEMERIS_TYPE = 0
CLASSIFICATION_TYPE = U
NORAD_CAT_ID   = 25732
ELEMENT_SET_NO = 999
REV_AT_EPOCH   = 38156
BSTAR          = .97545276E-4
MEAN_MOTION_DOT = .159E-5
MEAN_MOTION_DDOT = 0

CCSDS_OMM_VERS = 2.0
CREATION_DATE  = 
ORIGINATOR     = 

OBJECT_NAME    = OKEAN-O
OBJECT_ID      = 1999-039A
CENTER_NAME    = EARTH
REF_FRAME      = TEME
TIME_SYSTEM    = UTC
MEAN_ELEMENT_THEORY = SGP/SGP4

EPOCH          = 2026-01-22T03:30:54.370368
MEAN_MOTION    = 14.80247014
ECCENTRICITY   = .00018314
INCLINATION    = 97.9538
RA_OF_ASC_NODE = 82.4877
ARG_OF_PERICENTER = 101.5228
MEAN_ANOMALY   = 258.6189

EPHEMERIS_TYPE = 0
CLASSIFICATION_TYPE = U
NORAD_CAT_ID   = 25860
ELEMENT_SET_NO = 999
REV_AT_EPOCH   = 42750
BSTAR          = .22563872E-3
MEAN_MOTION_DOT = .1665E-4
MEAN_MOTION_DDOT = 0

CCSDS_OMM_VERS = 2.0
CREATION_DATE  = 
ORIGINATOR     = 

OBJECT_NAME    = SL-16 R/B
OBJECT_ID      = 1999-039B
CENTER_NAME    = EARTH
REF_FRAME      = TEME
TIME_SYSTEM    = UTC
MEAN_ELEMENT_THEORY = SGP/SGP4

EPOCH          = 2026-01-22T04:05:23.695296
MEAN_MOTION    = 14.81656207
ECCENTRICITY   = .00158558
INCLINATION    = 98.0063
RA_OF_ASC_NODE = 81.3128
ARG_OF_PERICENTER = 51.8804
MEAN_ANOMALY   = 308.3835

EPHEMERIS_TYPE = 0
CLASSIFICATION_TYPE = U
NORAD_CAT_ID   = 25861
ELEMENT_SET_NO = 999
REV_AT_EPOCH   = 42997
BSTAR          = .16120339E-3
MEAN_MOTION_DOT = .1217E-4
MEAN_MOTION_DDOT = 0

CCSDS_OMM_VERS = 2.0
CREATION_DATE  = 
ORIGINATOR     = 

OBJECT_NAME    = DELTA 2 R/B
OBJECT_ID      = 1999-041E
CENTER_NAME    = EARTH
REF_FRAME      = TEME
TIME_SYSTEM    = UTC
MEAN_ELEMENT_THEORY = SGP/SGP4

EPOCH          = 2026-01-22T06:48:55.673280
MEAN_MOTION    = 14.11602766
ECCENTRICITY   = .05031586
INCLINATION    = 51.7629
RA_OF_ASC_NODE = 126.5836
ARG_OF_PERICENTER = 211.3186
MEAN_ANOMALY   = 145.6854

EPHEMERIS_TYPE = 0
CLASSIFICATION_TYPE = U
NORAD_CAT_ID   = 25876
ELEMENT_SET_NO = 999
REV_AT_EPOCH   = 35647
BSTAR          = .70043822E-3
MEAN_MOTION_DOT = .4127E-4
MEAN_MOTION_DDOT = 0

CCSDS_OMM_VERS = 2.0
CREATION_DATE  = 
ORIGINATOR     = 

OBJECT_NAME    = HELIOS 1B
OBJECT_ID      = 1999-064A
CENTER_NAME    = EARTH
REF_FRAME      = TEME
TIME_SYSTEM    = UTC
MEAN_ELEMENT_THEORY = SGP/SGP4

EPOCH          = 2026-01-22T05:38:05.227008
MEAN_MOTION    = 14.87480607
ECCENTRICITY   = .00010646
INCLINATION    = 98.1738
RA_OF_ASC_NODE = 283.1041
ARG_OF_PERICENTER = 135.5081
MEAN_ANOMALY   = 224.6220

EPHEMERIS_TYPE = 0
CLASSIFICATION_TYPE = U
NORAD_CAT_ID   = 25977
ELEMENT_SET_NO = 999
REV_AT_EPOCH   = 67835
BSTAR          = .36573726E-3
MEAN_MOTION_DOT = .3256E-4
MEAN_MOTION_DDOT = 0

CCSDS_OMM_VERS = 2.0
CREATION_DATE  = 
ORIGINATOR     = 

OBJECT_NAME    = TERRA
OBJECT_ID      = 1999-068A
CENTER_NAME    = EARTH
REF_FRAME      = TEME
TIME_SYSTEM    = UTC
MEAN_ELEMENT_THEORY = SGP/SGP4

EPOCH          = 2026-01-22T06:44:54.034080
MEAN_MOTION    = 14.60956550
ECCENTRICITY   = .00018331
INCLINATION    = 97.9687
RA_OF_ASC_NODE = 77.4661
ARG_OF_PERICENTER = 4.0505
MEAN_ANOMALY   = 60.4331

EPHEMERIS_TYPE = 0
CLASSIFICATION_TYPE = U
NORAD_CAT_ID   = 25994
ELEMENT_SET_NO = 999
REV_AT_EPOCH   = 38830
BSTAR          = .20799337E-3
MEAN_MOTION_DOT = .975E-5
MEAN_MOTION_DDOT = 0

CCSDS_OMM_VERS = 2.0
CREATION_DATE  = 
ORIGINATOR     = 

OBJECT_NAME    = SL-16 R/B
OBJECT_ID      = 2000-006B
CENTER_NAME    = EARTH
REF_FRAME      = TEME
TIME_SYSTEM    = UTC
MEAN_ELEMENT_THEORY = SGP/SGP4

EPOCH          = 2026-01-22T04:05:27.692160
MEAN_MOTION    = 14.15812816
ECCENTRICITY   = .00187381
INCLINATION    = 71.0002
RA_OF_ASC_NODE = 195.6476
ARG_OF_PERICENTER = 254.2275
MEAN_ANOMALY   = 105.6781

EPHEMERIS_TYPE = 0
CLASSIFICATION_TYPE = U
NORAD_CAT_ID   = 26070
ELEMENT_SET_NO = 999
REV_AT_EPOCH   = 34197
BSTAR          = .59500886E-4
MEAN_MOTION_DOT = .69E-6
MEAN_MOTION_DDOT = 0

CCSDS_OMM_VERS = 2.0
CREATION_DATE  = 
ORIGINATOR     = 

OBJECT_NAME    = TITAN 4B R/B
OBJECT_ID      = 2000-047B
CENTER_NAME    = EARTH
REF_FRAME      = TEME
TIME_SYSTEM    = UTC
MEAN_ELEMENT_THEORY = SGP/SGP4

EPOCH          = 2026-01-22T07:25:45.691104
MEAN_MOTION    = 15.09133187
ECCENTRICITY   = .00368705
INCLINATION    = 67.9891
RA_OF_ASC_NODE = 170.8865
ARG_OF_PERICENTER = 93.6085
MEAN_ANOMALY   = 266.9281

EPHEMERIS_TYPE = 0
CLASSIFICATION_TYPE = U
NORAD_CAT_ID   = 26474
ELEMENT_SET_NO = 999
REV_AT_EPOCH   = 38591
BSTAR          = .37257848E-3
MEAN_MOTION_DOT = .5889E-4
MEAN_MOTION_DDOT = 0

CCSDS_OMM_VERS = 2.0
CREATION_DATE  = 
ORIGINATOR     = 

OBJECT_NAME    = ENVISAT
OBJECT_ID      = 2002-009A
CENTER_NAME    = EARTH
REF_FRAME      = TEME
TIME_SYSTEM    = UTC
MEAN_ELEMENT_THEORY = SGP/SGP4

EPOCH          = 2026-01-22T07:43:40.882080
MEAN_MOTION    = 14.39016889
ECCENTRICITY   = .00012038
INCLINATION    = 98.3655
RA_OF_ASC_NODE = 337.0461
ARG_OF_PERICENTER = 91.8027
MEAN_ANOMALY   = 62.8100

EPHEMERIS_TYPE = 0
CLASSIFICATION_TYPE = U
NORAD_CAT_ID   = 27386
ELEMENT_SET_NO = 999
REV_AT_EPOCH   = 25250
BSTAR          = .99460799E-4
MEAN_MOTION_DOT = .264E-5
MEAN_MOTION_DDOT = 0

