SL-16 R/B               
1 25400U 98043G   26022.28323829  .00000160  00000+0  85689-4 0  9990
2 25400  98.8183 335.3401 0010407 143.9470 216.2413 14.26036879432373
SL-16 R/B               
1 25407U 98045B   26022.16717143  .00000345  00000+0  19814-3 0  9993
2 25407  71.0112 279.4105 0005196  99.7364 260.4347 14.16184912420514
ISS (ZARYA)             
1 25544U 98067A   26022.17441205  .00016198  00000+0  29562-3 0  9997
2 25544  51.6328 302.3013 0007809  45.1395 315.0227 15.49548134549125
CZ-4B R/B               
1 25732U 99025C   26022.10209971  .00000159  00000+0  97545-4 0  9993
2 25732  98.6712  67.4683 0038081 118.2798 296.5432 14.18254660381565
OKEAN-O                 
1 25860U 99039A   26022.14646262  .00001665  00000+0  22564-3 0  9993
2 25860  97.9538  82.4877 0001831 101.5228 258.6189 14.80247014427500
SL-16 R/B               
1 25861U 99039B   26022.17041314  .00001217  00000+0  16120-3 0  9998
2 25861  98.0063  81.3128 0015855  51.8804 308.3835 14.81656207429974
DELTA 2 R/B             
1 25876U 99041E   26022.28397770  .00004127  00000+0  70044-3 0  9997
2 25876  51.7629 126.5836 0503158 211.3186 145.6854 14.11602766356477
HELIOS 1B               
1 25977U 99064A   26022.23478272  .00003256  00000+0  36574-3 0  9998
2 25977  98.1738 283.1041 0001064 135.5081 224.6220 14.87480607678353
TERRA                   
1 25994U 99068A   26022.28118095  .00000975  00000+0  20799-3 0  9997
2 25994  97.9687  77.4661 0001833   4.0505  60.4331 14.60956550388307
SL-16 R/B               
1 26070U 00006B   26022.17045940  .00000069  00000+0  59501-4 0  9991
2 26070  71.0002 195.6476 0018738 254.2275 105.6781 14.15812816341978
TITAN 4B R/B            
1 26474U 00047B   26022.30955661  .00005889  00000+0  37258-3 0  9998
2 26474  67.9891 170.8865 0036870  93.6085 266.9281 15.09133187385913
ENVISAT                 
1 27386U 02009A   26022.32200095  .00000264  00000+0  99461-4 0  9994
2 27386  98.3655 337.0461 0001203  91.8027  62.8100 14.39016889252501
